{"type": "FeatureCollection", "features": [ {"type": "Feature", "properties": {"norad_id": 34303, "name": "COSMOS 2251 DEB", "group": "cosmos-2251-debris", "lat": 1.8489332183232166, "lon": 107.75589636834887, "alt_km": 747.1499361129545, "timestamp": "2025-12-12T14:39:18.326625+00:00", "meta": {"OBJECT_NAME": "COSMOS 2251 DEB", "OBJECT_ID": "1993-036MZ", "EPOCH": "2025-12-12T06:07:54.674688", "MEAN_MOTION": 14.54441989, "ECCENTRICITY": 0.01350003, "INCLINATION": 74.0053, "RA_OF_ASC_NODE": 288.9593, "ARG_OF_PERICENTER": 67.4407, "MEAN_ANOMALY": 50.3448, "EPHEMERIS_TYPE": 0, "CLASSIFICATION_TYPE": "U", "NORAD_CAT_ID": 34303, "ELEMENT_SET_NO": 999, "REV_AT_EPOCH": 87955, "BSTAR": 0.0022404492, "MEAN_MOTION_DOT": 0.00010756, "MEAN_MOTION_DDOT": 0}, "tle": {"line1": "1 34303U 93036MZ  25346.25549392  .00010756  00000+0  22404-2 0  9995", "line2": "2 34303  74.0053 288.9593 0135000  67.4407  50.3448 14.54441989879552"}}, "geometry": {"type": "Point", "coordinates": [107.75589636834887, 1.8489332183232166]}}, {"type": "Feature", "properties": {"norad_id": 34304, "name": "COSMOS 2251 DEB", "group": "cosmos-2251-debris", "lat": -59.354859204044544, "lon": 93.89526842265809, "alt_km": 697.3739544160371, "timestamp": "2025-12-12T14:39:18.326634+00:00", "meta": {"OBJECT_NAME": "COSMOS 2251 DEB", "OBJECT_ID": "1993-036NA", "EPOCH": "2025-12-11T15:38:34.924704", "MEAN_MOTION": 14.37842922, "ECCENTRICITY": 0.01289323, "INCLINATION": 74.0134, "RA_OF_ASC_NODE": 124.6019, "ARG_OF_PERICENTER": 262.6101, "MEAN_ANOMALY": 111.8909, "EPHEMERIS_TYPE": 0, "CLASSIFICATION_TYPE": "U", "NORAD_CAT_ID": 34304, "ELEMENT_SET_NO": 999, "REV_AT_EPOCH": 87281, "BSTAR": 0.0023363663, "MEAN_MOTION_DOT": 7.735e-05, "MEAN_MOTION_DDOT": 0}, "tle": {"line1": "1 34304U 93036NA  25345.65179311  .00007735  00000+0  23364-2 0  9998", "line2": "2 34304  74.0134 124.6019 0128932 262.6101 111.8909 14.37842922872818"}}, "geometry": {"type": "Point", "coordinates": [93.89526842265809, -59.354859204044544]}}, {"type": "Feature", "properties": {"norad_id": 34307, "name": "COSMOS 2251 DEB", "group": "cosmos-2251-debris", "lat": -2.268811892513361, "lon": 133.9714837827551, "alt_km": 825.1411840982173, "timestamp": "2025-12-12T14:39:18.326643+00:00", "meta": {"OBJECT_NAME": "COSMOS 2251 DEB", "OBJECT_ID": "1993-036ND", "EPOCH": "2025-12-12T07:02:19.281408", "MEAN_MOTION": 13.54319705, "ECCENTRICITY": 0.03920705, "INCLINATION": 74.0533, "RA_OF_ASC_NODE": 313.8315, "ARG_OF_PERICENTER": 144.8706, "MEAN_ANOMALY": 287.9975, "EPHEMERIS_TYPE": 0, "CLASSIFICATION_TYPE": "U", "NORAD_CAT_ID": 34307, "ELEMENT_SET_NO": 999, "REV_AT_EPOCH": 82856, "BSTAR": 0.0008707902, "MEAN_MOTION_DOT": 9.5e-06, "MEAN_MOTION_DDOT": 0}, "tle": {"line1": "1 34307U 93036ND  25346.29327872  .00000950  00000+0  87079-3 0  9995", "line2": "2 34307  74.0533 313.8315 0392070 144.8706 287.9975 13.54319705828560"}}, "geometry": {"type": "Point", "coordinates": [133.9714837827551, -2.268811892513361]}}, {"type": "Feature", "properties": {"norad_id": 34313, "name": "COSMOS 2251 DEB", "group": "cosmos-2251-debris", "lat": -64.91458988927185, "lon": 163.64942805532658, "alt_km": 523.3276294138905, "timestamp": "2025-12-12T14:39:18.326653+00:00", "meta": {"OBJECT_NAME": "COSMOS 2251 DEB", "OBJECT_ID": "1993-036NK", "EPOCH": "2025-12-12T07:14:03.359328", "MEAN_MOTION": 15.18985661, "ECCENTRICITY": 0.00115238, "INCLINATION": 73.9728, "RA_OF_ASC_NODE": 306.4146, "ARG_OF_PERICENTER": 82.1058, "MEAN_ANOMALY": 278.1446, "EPHEMERIS_TYPE": 0, "CLASSIFICATION_TYPE": "U", "NORAD_CAT_ID": 34313, "ELEMENT_SET_NO": 999, "REV_AT_EPOCH": 89058, "BSTAR": 0.0058067398, "MEAN_MOTION_DOT": 0.00123755, "MEAN_MOTION_DDOT": 0}, "tle": {"line1": "1 34313U 93036NK  25346.30142777  .00123755  00000+0  58067-2 0  9996", "line2": "2 34313  73.9728 306.4146 0011523  82.1058 278.1446 15.18985661890584"}}, "geometry": {"type": "Point", "coordinates": [163.64942805532658, -64.91458988927185]}}, {"type": "Feature", "properties": {"norad_id": 34314, "name": "COSMOS 2251 DEB", "group": "cosmos-2251-debris", "lat": -40.09177531874427, "lon": -65.357339867025, "alt_km": 847.5633753138591, "timestamp": "2025-12-12T14:39:18.326662+00:00", "meta": {"OBJECT_NAME": "COSMOS 2251 DEB", "OBJECT_ID": "1993-036NL", "EPOCH": "2025-12-12T06:57:03.618144", "MEAN_MOTION": 14.17422782, "ECCENTRICITY": 0.01027732, "INCLINATION": 74.0067, "RA_OF_ASC_NODE": 309.1867, "ARG_OF_PERICENTER": 54.9413, "MEAN_ANOMALY": 66.9088, "EPHEMERIS_TYPE": 0, "CLASSIFICATION_TYPE": "U", "NORAD_CAT_ID": 34314, "ELEMENT_SET_NO": 999, "REV_AT_EPOCH": 86651, "BSTAR": 0.00086241723, "MEAN_MOTION_DOT": 1.816e-05, "MEAN_MOTION_DDOT": 0}, "tle": {"line1": "1 34314U 93036NL  25346.28962521  .00001816  00000+0  86242-3 0  9991", "line2": "2 34314  74.0067 309.1867 0102773  54.9413  66.9088 14.17422782866512"}}, "geometry": {"type": "Point", "coordinates": [-65.357339867025, -40.09177531874427]}}, {"type": "Feature", "properties": {"norad_id": 34316, "name": "COSMOS 2251 DEB", "group": "cosmos-2251-debris", "lat": 59.60961573705482, "lon": 127.99362496296172, "alt_km": 582.796941122212, "timestamp": "2025-12-12T14:39:18.326671+00:00", "meta": {"OBJECT_NAME": "COSMOS 2251 DEB", "OBJECT_ID": "1993-036NN", "EPOCH": "2025-12-12T06:05:22.841376", "MEAN_MOTION": 14.91808593, "ECCENTRICITY": 0.0008283, "INCLINATION": 74.0653, "RA_OF_ASC_NODE": 337.8624, "ARG_OF_PERICENTER": 62.1319, "MEAN_ANOMALY": 298.0701, "EPHEMERIS_TYPE": 0, "CLASSIFICATION_TYPE": "U", "NORAD_CAT_ID": 34316, "ELEMENT_SET_NO": 999, "REV_AT_EPOCH": 89202, "BSTAR": 0.0023854293, "MEAN_MOTION_DOT": 0.00024134, "MEAN_MOTION_DDOT": 0}, "tle": {"line1": "1 34316U 93036NN  25346.25373659  .00024134  00000+0  23854-2 0  9995", "line2": "2 34316  74.0653 337.8624 0008283  62.1319 298.0701 14.91808593892026"}}, "geometry": {"type": "Point", "coordinates": [127.99362496296172, 59.60961573705482]}}, {"type": "Feature", "properties": {"norad_id": 34317, "name": "COSMOS 2251 DEB", "group": "cosmos-2251-debris", "lat": -72.4954333981643, "lon": -30.128438307163293, "alt_km": 1094.3863153555048, "timestamp": "2025-12-12T14:39:18.326680+00:00", "meta": {"OBJECT_NAME": "COSMOS 2251 DEB", "OBJECT_ID": "1993-036NP", "EPOCH": "2025-12-11T12:59:37.182048", "MEAN_MOTION": 13.65120292, "ECCENTRICITY": 0.03364777, "INCLINATION": 73.9247, "RA_OF_ASC_NODE": 37.7308, "ARG_OF_PERICENTER": 27.2247, "MEAN_ANOMALY": 40.7995, "EPHEMERIS_TYPE": 0, "CLASSIFICATION_TYPE": "U", "NORAD_CAT_ID": 34317, "ELEMENT_SET_NO": 999, "REV_AT_EPOCH": 83603, "BSTAR": 0.00055497737, "MEAN_MOTION_DOT": 6.4e-06, "MEAN_MOTION_DDOT": 0}, "tle": {"line1": "1 34317U 93036NP  25345.54140257  .00000640  00000+0  55498-3 0  9999", "line2": "2 34317  73.9247  37.7308 0336477  27.2247  40.7995 13.65120292836039"}}, "geometry": {"type": "Point", "coordinates": [-30.128438307163293, -72.4954333981643]}}, {"type": "Feature", "properties": {"norad_id": 34321, "name": "COSMOS 2251 DEB", "group": "cosmos-2251-debris", "lat": -68.46227061031671, "lon": 110.07958175562429, "alt_km": 721.1380975409675, "timestamp": "2025-12-12T14:39:18.326689+00:00", "meta": {"OBJECT_NAME": "COSMOS 2251 DEB", "OBJECT_ID": "1993-036NT", "EPOCH": "2025-12-12T05:53:33.900000", "MEAN_MOTION": 14.50052544, "ECCENTRICITY": 0.00158285, "INCLINATION": 74.0281, "RA_OF_ASC_NODE": 157.2901, "ARG_OF_PERICENTER": 286.912, "MEAN_ANOMALY": 252.6517, "EPHEMERIS_TYPE": 0, "CLASSIFICATION_TYPE": "U", "NORAD_CAT_ID": 34321, "ELEMENT_SET_NO": 999, "REV_AT_EPOCH": 88479, "BSTAR": 0.00095066537, "MEAN_MOTION_DOT": 3.666e-05, "MEAN_MOTION_DDOT": 0}, "tle": {"line1": "1 34321U 93036NT  25346.24553125  .00003666  00000+0  95067-3 0  9991", "line2": "2 34321  74.0281 157.2901 0015828 286.9120 252.6517 14.50052544884798"}}, "geometry": {"type": "Point", "coordinates": [110.07958175562429, -68.46227061031671]}}, {"type": "Feature", "properties": {"norad_id": 34323, "name": "COSMOS 2251 DEB", "group": "cosmos-2251-debris", "lat": -65.13260377636485, "lon": 84.97783633594914, "alt_km": 675.6117157208791, "timestamp": "2025-12-12T14:39:18.326698+00:00", "meta": {"OBJECT_NAME": "COSMOS 2251 DEB", "OBJECT_ID": "1993-036NV", "EPOCH": "2025-12-11T19:57:45.459360", "MEAN_MOTION": 14.7438175, "ECCENTRICITY": 0.00592404, "INCLINATION": 73.9526, "RA_OF_ASC_NODE": 124.8955, "ARG_OF_PERICENTER": 169.1783, "MEAN_ANOMALY": 307.2127, "EPHEMERIS_TYPE": 0, "CLASSIFICATION_TYPE": "U", "NORAD_CAT_ID": 34323, "ELEMENT_SET_NO": 999, "REV_AT_EPOCH": 88426, "BSTAR": 0.0037400121, "MEAN_MOTION_DOT": 0.00025575, "MEAN_MOTION_DDOT": 0}, "tle": {"line1": "1 34323U 93036NV  25345.83177615  .00025575  00000+0  37400-2 0  9992", "line2": "2 34323  73.9526 124.8955 0059240 169.1783 307.2127 14.74381750884268"}}, "geometry": {"type": "Point", "coordinates": [84.97783633594914, -65.13260377636485]}}, {"type": "Feature", "properties": {"norad_id": 34325, "name": "COSMOS 2251 DEB", "group": "cosmos-2251-debris", "lat": 4.853219077383555, "lon": 11.626996361068077, "alt_km": 765.8318722805716, "timestamp": "2025-12-12T14:39:18.326708+00:00", "meta": {"OBJECT_NAME": "COSMOS 2251 DEB", "OBJECT_ID": "1993-036NX", "EPOCH": "2025-12-12T07:49:44.385024", "MEAN_MOTION": 14.04468864, "ECCENTRICITY": 0.01922779, "INCLINATION": 73.8711, "RA_OF_ASC_NODE": 193.5358, "ARG_OF_PERICENTER": 210.9368, "MEAN_ANOMALY": 327.6615, "EPHEMERIS_TYPE": 0, "CLASSIFICATION_TYPE": "U", "NORAD_CAT_ID": 34325, "ELEMENT_SET_NO": 999, "REV_AT_EPOCH": 85509, "BSTAR": 0.0026068565, "MEAN_MOTION_DOT": 4.879e-05, "MEAN_MOTION_DDOT": 0}, "tle": {"line1": "1 34325U 93036NX  25346.32620816  .00004879  00000+0  26069-2 0  9998", "line2": "2 34325  73.8711 193.5358 0192277 210.9368 327.6615 14.04468864855099"}}, "geometry": {"type": "Point", "coordinates": [11.626996361068077, 4.853219077383555]}}]}